{
  "type": "FeatureCollection",
  "features": [
    {
      "type": "Feature",
      "geometry": {
        "type": "Polygon",
        "coordinates": [
          [
            [
              117.2636903,
              31.843685799999996
            ],
            [
              117.26388660000002,
              31.8436949
            ],
            [
              117.26461360000002,
              31.843705999999994
            ],
            [
              117.26531110000002,
              31.843716599999997
            ],
            [
              117.2657831,
              31.8437238
            ],
            [
              117.2674958,
              31.843749999999993
            ],
            [
              117.267514,
              31.843468
            ],
            [
              117.26754630000002,
              31.8427286
            ],
            [
              117.2676384,
              31.8405898
            ],
            [
              117.267675,
              31.839739499999986
            ],
            [
              117.26771500000001,
              31.8385143
            ],
            [
              117.26775000000002,
              31.8374403
            ],
            [
              117.26775939999999,
              31.8371522
            ],
            [
              117.2677694,
              31.8368455
            ],
            [
              117.26779639999998,
              31.8363449
            ],
            [
              117.26789470000001,
              31.83452529999999
            ],
            [
              117.2678316,
              31.834318499999995
            ],
            [
              117.26695860000001,
              31.8344117
            ],
            [
              117.26553830000002,
              31.8345633
            ],
            [
              117.26524000000002,
              31.8345974
            ],
            [
              117.2640746,
              31.834719200000002
            ],
            [
              117.2639438,
              31.8347332
            ],
            [
              117.2618355,
              31.834944200000006
            ],
            [
              117.26138380000002,
              31.83500589999999
            ],
            [
              117.26124520000002,
              31.835019499999994
            ],
            [
              117.2600134,
              31.835140700000004
            ],
            [
              117.2595994,
              31.835177999999996
            ],
            [
              117.25966940000002,
              31.8356319
            ],
            [
              117.2597031,
              31.835875599999998
            ],
            [
              117.25980309999998,
              31.83651349999999
            ],
            [
              117.26013040000001,
              31.8379445
            ],
            [
              117.26046609999999,
              31.8388577
            ],
            [
              117.2608505,
              31.8395808
            ],
            [
              117.2608775,
              31.839631600000008
            ],
            [
              117.26118499999998,
              31.8401816
            ],
            [
              117.2613153,
              31.8403881
            ],
            [
              117.2614398,
              31.840566599999995
            ],
            [
              117.2619826,
              31.841317299999996
            ],
            [
              117.2634766,
              31.843389500000004
            ],
            [
              117.2636903,
              31.843685799999996
            ]
          ]
        ]
      },
      "properties": {
        "source": "OpenStreetMap mapped road carriageways",
        "boundary_roads": [
          "黄山路",
          "太湖路",
          "金寨路",
          "宿松路"
        ],
        "google_maps_verified": false,
        "boundary_convention": "interior enclosed face of mapped carriageways"
      }
    }
  ]
}
